{
  "type": "FeatureCollection",
  "features": [
    {
      "type": "Feature",
      "properties": {
        "norad_id": 37846,
        "name": "GSAT0101 (GALILEO-PFM)",
        "group": "gnss",
        "lat": 47.62425946795807,
        "lon": 32.21151452647419,
        "alt_km": 23219.327096068126,
        "timestamp": "2025-12-09T11:33:55.041082+00:00",
        "meta_object_name": "GSAT0101 (GALILEO-PFM)",
        "meta_object_id": "2011-060A",
        "meta_epoch": "2025-12-06T10:45:46.943136",
        "meta_mean_motion": 1.70475516,
        "meta_eccentricity": 0.00028809,
        "meta_inclination": 57.0541,
        "meta_ra_of_asc_node": 346.9907,
        "meta_arg_of_pericenter": 311.6243,
        "meta_mean_anomaly": 48.3737,
        "meta_ephemeris_type": 0,
        "meta_classification_type": "U",
        "meta_norad_cat_id": 37846,
        "meta_element_set_no": 999,
        "meta_rev_at_epoch": 8783,
        "meta_bstar": 0,
        "meta_mean_motion_dot": -8.1e-07,
        "meta_mean_motion_ddot": 0,
        "tle_line1": "1 37846U 11060A   25340.44845999 -.00000081  00000+0  00000+0 0  9990",
        "tle_line2": "2 37846  57.0541 346.9907 0002880 311.6243  48.3737  1.70475516 87832"
      },
      "geometry": {
        "type": "Point",
        "coordinates": [
          32.21151452647419,
          47.62425946795807
        ]
      }
    },
    {
      "type": "Feature",
      "properties": {
        "norad_id": 37847,
        "name": "GSAT0102 (GALILEO-FM2)",
        "group": "gnss",
        "lat": 53.28231711843862,
        "lon": 106.50473151316434,
        "alt_km": 23229.39623213701,
        "timestamp": "2025-12-09T11:33:55.041094+00:00",
        "meta_object_name": "GSAT0102 (GALILEO-FM2)",
        "meta_object_id": "2011-060B",
        "meta_epoch": "2025-12-09T00:17:40.052832",
        "meta_mean_motion": 1.70475785,
        "meta_eccentricity": 0.0004909,
        "meta_inclination": 57.0543,
        "meta_ra_of_asc_node": 346.9214,
        "meta_arg_of_pericenter": 308.1942,
        "meta_mean_anomaly": 230.7315,
        "meta_ephemeris_type": 0,
        "meta_classification_type": "U",
        "meta_norad_cat_id": 37847,
        "meta_element_set_no": 999,
        "meta_rev_at_epoch": 8788,
        "meta_bstar": 0,
        "meta_mean_motion_dot": -8.7e-07,
        "meta_mean_motion_ddot": 0,
        "tle_line1": "1 37847U 11060B   25343.01226913 -.00000087  00000+0  00000+0 0  9992",
        "tle_line2": "2 37847  57.0543 346.9214 0004909 308.1942 230.7315  1.70475785 87889"
      },
      "geometry": {
        "type": "Point",
        "coordinates": [
          106.50473151316434,
          53.28231711843862
        ]
      }
    },
    {
      "type": "Feature",
      "properties": {
        "norad_id": 37867,
        "name": "COSMOS 2476 (744)",
        "group": "gnss",
        "lat": 57.54301123348365,
        "lon": 125.93676933568014,
        "alt_km": 19183.154828332794,
        "timestamp": "2025-12-09T11:33:55.041107+00:00",
        "meta_object_name": "COSMOS 2476 (744)",
        "meta_object_id": "2011-064A",
        "meta_epoch": "2025-12-08T12:40:16.683168",
        "meta_mean_motion": 2.131013,
        "meta_eccentricity": 0.00241182,
        "meta_inclination": 65.16,
        "meta_ra_of_asc_node": 79.314,
        "meta_arg_of_pericenter": 233.9995,
        "meta_mean_anomaly": 182.6426,
        "meta_ephemeris_type": 0,
        "meta_classification_type": "U",
        "meta_norad_cat_id": 37867,
        "meta_element_set_no": 999,
        "meta_rev_at_epoch": 10970,
        "meta_bstar": 0,
        "meta_mean_motion_dot": -1.2e-07,
        "meta_mean_motion_ddot": 0,
        "tle_line1": "1 37867U 11064A   25342.52797087 -.00000012  00000+0  00000+0 0  9996",
        "tle_line2": "2 37867  65.1600  79.3140 0024118 233.9995 182.6426  2.13101300109708"
      },
      "geometry": {
        "type": "Point",
        "coordinates": [
          125.93676933568014,
          57.54301123348365
        ]
      }
    },
    {
      "type": "Feature",
      "properties": {
        "norad_id": 37868,
        "name": "COSMOS 2477 (745)",
        "group": "gnss",
        "lat": -58.20466798365293,
        "lon": -52.40431180759959,
        "alt_km": 19083.911222911986,
        "timestamp": "2025-12-09T11:33:55.041119+00:00",
        "meta_object_name": "COSMOS 2477 (745)",
        "meta_object_id": "2011-064B",
        "meta_epoch": "2025-12-08T06:12:22.664160",
        "meta_mean_motion": 2.13102704,
        "meta_eccentricity": 0.0021182,
        "meta_inclination": 65.1663,
        "meta_ra_of_asc_node": 79.4007,
        "meta_arg_of_pericenter": 234.576,
        "meta_mean_anomaly": 156.3219,
        "meta_ephemeris_type": 0,
        "meta_classification_type": "U",
        "meta_norad_cat_id": 37868,
        "meta_element_set_no": 999,
        "meta_rev_at_epoch": 10969,
        "meta_bstar": 0,
        "meta_mean_motion_dot": -1.1e-07,
        "meta_mean_motion_ddot": 0,
        "tle_line1": "1 37868U 11064B   25342.25859565 -.00000011  00000+0  00000+0 0  9996",
        "tle_line2": "2 37868  65.1663  79.4007 0021182 234.5760 156.3219  2.13102704109691"
      },
      "geometry": {
        "type": "Point",
        "coordinates": [
          -52.40431180759959,
          -58.20466798365293
        ]
      }
    },
    {
      "type": "Feature",
      "properties": {
        "norad_id": 37869,
        "name": "COSMOS 2475 (743)",
        "group": "gnss",
        "lat": -22.70435883360934,
        "lon": -89.46428883874229,
        "alt_km": 19084.60222184607,
        "timestamp": "2025-12-09T11:33:55.041131+00:00",
        "meta_object_name": "COSMOS 2475 (743)",
        "meta_object_id": "2011-064C",
        "meta_epoch": "2025-12-09T06:01:19.560576",
        "meta_mean_motion": 2.13101305,
        "meta_eccentricity": 0.002608,
        "meta_inclination": 65.1742,
        "meta_ra_of_asc_node": 79.3871,
        "meta_arg_of_pericenter": 248.2681,
        "meta_mean_anomaly": 139.87,
        "meta_ephemeris_type": 0,
        "meta_classification_type": "U",
        "meta_norad_cat_id": 37869,
        "meta_element_set_no": 999,
        "meta_rev_at_epoch": 10972,
        "meta_bstar": 0,
        "meta_mean_motion_dot": -1.3e-07,
        "meta_mean_motion_ddot": 0,
        "tle_line1": "1 37869U 11064C   25343.25092084 -.00000013  00000+0  00000+0 0  9995",
        "tle_line2": "2 37869  65.1742  79.3871 0026080 248.2681 139.8700  2.13101305109725"
      },
      "geometry": {
        "type": "Point",
        "coordinates": [
          -89.46428883874229,
          -22.70435883360934
        ]
      }
    },
    {
      "type": "Feature",
      "properties": {
        "norad_id": 37948,
        "name": "BEIDOU-2 IGSO-5 (C10)",
        "group": "gnss",
        "lat": 44.43183984085049,
        "lon": -24.39195890491562,
        "alt_km": 36184.107868478335,
        "timestamp": "2025-12-09T11:33:55.041151+00:00",
        "meta_object_name": "BEIDOU-2 IGSO-5 (C10)",
        "meta_object_id": "2011-073A",
        "meta_epoch": "2025-12-07T19:12:14.882400",
        "meta_mean_motion": 1.00291658,
        "meta_eccentricity": 0.01104068,
        "meta_inclination": 48.0298,
        "meta_ra_of_asc_node": 273.9181,
        "meta_arg_of_pericenter": 222.1784,
        "meta_mean_anomaly": 321.4594,
        "meta_ephemeris_type": 0,
        "meta_classification_type": "U",
        "meta_norad_cat_id": 37948,
        "meta_element_set_no": 999,
        "meta_rev_at_epoch": 5121,
        "meta_bstar": 0,
        "meta_mean_motion_dot": -1.91e-06,
        "meta_mean_motion_ddot": 0,
        "tle_line1": "1 37948U 11073A   25341.80017225 -.00000191  00000+0  00000+0 0  9993",
        "tle_line2": "2 37948  48.0298 273.9181 0110406 222.1784 321.4594  1.00291658 51212"
      },
      "geometry": {
        "type": "Point",
        "coordinates": [
          -24.39195890491562,
          44.43183984085049
        ]
      }
    },
    {
      "type": "Feature",
      "properties": {
        "norad_id": 37951,
        "name": "LUCH 5A (SDCM/PRN 140)",
        "group": "gnss",
        "lat": -2.4796003352931386,
        "lon": 59.17728679962505,
        "alt_km": 35809.130055893846,
        "timestamp": "2025-12-09T11:33:55.041164+00:00",
        "meta_object_name": "LUCH 5A (SDCM/PRN 140)",
        "meta_object_id": "2011-074B",
        "meta_epoch": "2025-12-09T02:22:35.931072",
        "meta_mean_motion": 1.00274193,
        "meta_eccentricity": 0.000575,
        "meta_inclination": 8.2708,
        "meta_ra_of_asc_node": 76.638,
        "meta_arg_of_pericenter": 178.4786,
        "meta_mean_anomaly": 25.6578,
        "meta_ephemeris_type": 0,
        "meta_classification_type": "U",
        "meta_norad_cat_id": 37951,
        "meta_element_set_no": 999,
        "meta_rev_at_epoch": 5114,
        "meta_bstar": 0,
        "meta_mean_motion_dot": -4.8e-07,
        "meta_mean_motion_ddot": 0,
        "tle_line1": "1 37951U 11074B   25343.09902698 -.00000048  00000+0  00000+0 0  9999",
        "tle_line2": "2 37951   8.2708  76.6380 0005750 178.4786  25.6578  1.00274193 51141"
      },
      "geometry": {
        "type": "Point",
        "coordinates": [
          59.17728679962505,
          -2.4796003352931386
        ]
      }
    }
  ]
}